{
  "type": "FeatureCollection",
  "features": [
    {
      "type": "Feature",
      "properties": {
        "norad_id": 33939,
        "name": "COSMOS 2251 DEB",
        "group": "cosmos-2251-debris",
        "lat": -54.09145037770233,
        "lon": 48.817856894306466,
        "alt_km": 573.3254867212245,
        "timestamp": "2025-12-16T21:38:57.568340+00:00",
        "meta_object_name": "COSMOS 2251 DEB",
        "meta_object_id": "1993-036EU",
        "meta_epoch": "2025-12-16T07:30:01.213056",
        "meta_mean_motion": 15.00163719,
        "meta_eccentricity": 0.00039484,
        "meta_inclination": 74.0069,
        "meta_ra_of_asc_node": 73.3519,
        "meta_arg_of_pericenter": 41.6546,
        "meta_mean_anomaly": 318.4941,
        "meta_ephemeris_type": 0,
        "meta_classification_type": "U",
        "meta_norad_cat_id": 33939,
        "meta_element_set_no": 999,
        "meta_rev_at_epoch": 88806,
        "meta_bstar": 0.0021492611,
        "meta_mean_motion_dot": 0.00026919,
        "meta_mean_motion_ddot": 0,
        "tle_line1": "1 33939U 93036EU  25350.31251404  .00026919  00000+0  21493-2 0  9990",
        "tle_line2": "2 33939  74.0069  73.3519 0003948  41.6546 318.4941 15.00163719888066"
      },
      "geometry": {
        "type": "Point",
        "coordinates": [
          48.817856894306466,
          -54.09145037770233
        ]
      }
    },
    {
      "type": "Feature",
      "properties": {
        "norad_id": 33940,
        "name": "COSMOS 2251 DEB",
        "group": "cosmos-2251-debris",
        "lat": 4.181087178786017,
        "lon": -45.62748154837117,
        "alt_km": 692.9452396412689,
        "timestamp": "2025-12-16T21:38:57.568351+00:00",
        "meta_object_name": "COSMOS 2251 DEB",
        "meta_object_id": "1993-036EV",
        "meta_epoch": "2025-12-16T03:33:27.069408",
        "meta_mean_motion": 14.58828798,
        "meta_eccentricity": 0.00111541,
        "meta_inclination": 74.0385,
        "meta_ra_of_asc_node": 137.0063,
        "meta_arg_of_pericenter": 216.9042,
        "meta_mean_anomaly": 321.4048,
        "meta_ephemeris_type": 0,
        "meta_classification_type": "U",
        "meta_norad_cat_id": 33940,
        "meta_element_set_no": 999,
        "meta_rev_at_epoch": 88643,
        "meta_bstar": 0.00076899996,
        "meta_mean_motion_dot": 3.573e-05,
        "meta_mean_motion_ddot": 0,
        "tle_line1": "1 33940U 93036EV  25350.14822997  .00003573  00000+0  76900-3 0  9999",
        "tle_line2": "2 33940  74.0385 137.0063 0011154 216.9042 321.4048 14.58828798886435"
      },
      "geometry": {
        "type": "Point",
        "coordinates": [
          -45.62748154837117,
          4.181087178786017
        ]
      }
    },
    {
      "type": "Feature",
      "properties": {
        "norad_id": 33942,
        "name": "COSMOS 2251 DEB",
        "group": "cosmos-2251-debris",
        "lat": 57.48988349242665,
        "lon": -66.14840650846138,
        "alt_km": 754.6484865213624,
        "timestamp": "2025-12-16T21:38:57.568361+00:00",
        "meta_object_name": "COSMOS 2251 DEB",
        "meta_object_id": "1993-036EX",
        "meta_epoch": "2025-12-16T05:22:05.781792",
        "meta_mean_motion": 14.37993864,
        "meta_eccentricity": 0.0020471,
        "meta_inclination": 74.0366,
        "meta_ra_of_asc_node": 268.4125,
        "meta_arg_of_pericenter": 350.9844,
        "meta_mean_anomaly": 159.7515,
        "meta_ephemeris_type": 0,
        "meta_classification_type": "U",
        "meta_norad_cat_id": 33942,
        "meta_element_set_no": 999,
        "meta_rev_at_epoch": 88184,
        "meta_bstar": 0.00021604029,
        "meta_mean_motion_dot": 6.29e-06,
        "meta_mean_motion_ddot": 0,
        "tle_line1": "1 33942U 93036EX  25350.22367803  .00000629  00000+0  21604-3 0  9990",
        "tle_line2": "2 33942  74.0366 268.4125 0020471 350.9844 159.7515 14.37993864881840"
      },
      "geometry": {
        "type": "Point",
        "coordinates": [
          -66.14840650846138,
          57.48988349242665
        ]
      }
    },
    {
      "type": "Feature",
      "properties": {
        "norad_id": 33944,
        "name": "COSMOS 2251 DEB",
        "group": "cosmos-2251-debris",
        "lat": -68.38956141639066,
        "lon": -104.98380873839143,
        "alt_km": 807.3788201710977,
        "timestamp": "2025-12-16T21:38:57.568371+00:00",
        "meta_object_name": "COSMOS 2251 DEB",
        "meta_object_id": "1993-036EZ",
        "meta_epoch": "2025-12-16T07:41:00.807072",
        "meta_mean_motion": 14.37351502,
        "meta_eccentricity": 0.01123278,
        "meta_inclination": 74.0404,
        "meta_ra_of_asc_node": 302.3387,
        "meta_arg_of_pericenter": 41.0199,
        "meta_mean_anomaly": 115.091,
        "meta_ephemeris_type": 0,
        "meta_classification_type": "U",
        "meta_norad_cat_id": 33944,
        "meta_element_set_no": 999,
        "meta_rev_at_epoch": 88079,
        "meta_bstar": 0.00034299274,
        "meta_mean_motion_dot": 1.074e-05,
        "meta_mean_motion_ddot": 0,
        "tle_line1": "1 33944U 93036EZ  25350.32014823  .00001074  00000+0  34299-3 0  9993",
        "tle_line2": "2 33944  74.0404 302.3387 0112327  41.0199 115.0910 14.37351502880790"
      },
      "geometry": {
        "type": "Point",
        "coordinates": [
          -104.98380873839143,
          -68.38956141639066
        ]
      }
    },
    {
      "type": "Feature",
      "properties": {
        "norad_id": 33945,
        "name": "COSMOS 2251 DEB",
        "group": "cosmos-2251-debris",
        "lat": 35.98103640446689,
        "lon": -49.35946588561237,
        "alt_km": 758.2075919037243,
        "timestamp": "2025-12-16T21:38:57.568382+00:00",
        "meta_object_name": "COSMOS 2251 DEB",
        "meta_object_id": "1993-036FA",
        "meta_epoch": "2025-12-16T08:05:10.497984",
        "meta_mean_motion": 14.34603956,
        "meta_eccentricity": 0.00220653,
        "meta_inclination": 74.0299,
        "meta_ra_of_asc_node": 299.6756,
        "meta_arg_of_pericenter": 25.0076,
        "meta_mean_anomaly": 335.2139,
        "meta_ephemeris_type": 0,
        "meta_classification_type": "U",
        "meta_norad_cat_id": 33945,
        "meta_element_set_no": 999,
        "meta_rev_at_epoch": 88067,
        "meta_bstar": 0.00013450263,
        "meta_mean_motion_dot": 3.55e-06,
        "meta_mean_motion_ddot": 0,
        "tle_line1": "1 33945U 93036FA  25350.33692706  .00000355  00000+0  13450-3 0  9994",
        "tle_line2": "2 33945  74.0299 299.6756 0022065  25.0076 335.2139 14.34603956880672"
      },
      "geometry": {
        "type": "Point",
        "coordinates": [
          -49.35946588561237,
          35.98103640446689
        ]
      }
    },
    {
      "type": "Feature",
      "properties": {
        "norad_id": 33948,
        "name": "COSMOS 2251 DEB",
        "group": "cosmos-2251-debris",
        "lat": -72.10338330046427,
        "lon": 179.92657862610642,
        "alt_km": 785.5969764722222,
        "timestamp": "2025-12-16T21:38:57.568392+00:00",
        "meta_object_name": "COSMOS 2251 DEB",
        "meta_object_id": "1993-036FD",
        "meta_epoch": "2025-12-16T07:03:12.623040",
        "meta_mean_motion": 14.35633717,
        "meta_eccentricity": 0.00228695,
        "meta_inclination": 74.0358,
        "meta_ra_of_asc_node": 298.6128,
        "meta_arg_of_pericenter": 13.5461,
        "meta_mean_anomaly": 346.63,
        "meta_ephemeris_type": 0,
        "meta_classification_type": "U",
        "meta_norad_cat_id": 33948,
        "meta_element_set_no": 999,
        "meta_rev_at_epoch": 88074,
        "meta_bstar": 0.00019251642,
        "meta_mean_motion_dot": 5.31e-06,
        "meta_mean_motion_ddot": 0,
        "tle_line1": "1 33948U 93036FD  25350.29389610  .00000531  00000+0  19252-3 0  9991",
        "tle_line2": "2 33948  74.0358 298.6128 0022869  13.5461 346.6300 14.35633717880748"
      },
      "geometry": {
        "type": "Point",
        "coordinates": [
          179.92657862610642,
          -72.10338330046427
        ]
      }
    },
    {
      "type": "Feature",
      "properties": {
        "norad_id": 33971,
        "name": "COSMOS 2251 DEB",
        "group": "cosmos-2251-debris",
        "lat": 29.95576521083238,
        "lon": -104.45609247442744,
        "alt_km": 748.1688279419532,
        "timestamp": "2025-12-16T21:38:57.568402+00:00",
        "meta_object_name": "COSMOS 2251 DEB",
        "meta_object_id": "1993-036FE",
        "meta_epoch": "2025-12-16T03:42:33.375744",
        "meta_mean_motion": 14.39731344,
        "meta_eccentricity": 0.00186701,
        "meta_inclination": 74.0247,
        "meta_ra_of_asc_node": 247.4221,
        "meta_arg_of_pericenter": 347.2739,
        "meta_mean_anomaly": 131.1919,
        "meta_ephemeris_type": 0,
        "meta_classification_type": "U",
        "meta_norad_cat_id": 33971,
        "meta_element_set_no": 999,
        "meta_rev_at_epoch": 88188,
        "meta_bstar": 0.0002411107,
        "meta_mean_motion_dot": 7.3e-06,
        "meta_mean_motion_ddot": 0,
        "tle_line1": "1 33971U 93036FE  25350.15455296  .00000730  00000+0  24111-3 0  9997",
        "tle_line2": "2 33971  74.0247 247.4221 0018670 347.2739 131.1919 14.39731344881885"
      },
      "geometry": {
        "type": "Point",
        "coordinates": [
          -104.45609247442744,
          29.95576521083238
        ]
      }
    }
  ]
}